JINJUSAT-1B             
1 63210U 25052A   26068.66363707  .00019955  00000+0  68430-3 0  9998
2 63210  97.4113 325.4613 0005550  82.1930 277.9941 15.30194857 54866
STARLINK-34262          
1 64688U 25139AA  26068.42222469  .00014260  00000+0  49277-3 0  9999
2 64688  53.1601 128.2399 0001124  75.8582 284.2544 15.30193035 40303
